Location_ID,City,Zipcode,Latitude,Longitude
1,Frazier Park,93225,34.827662,-118.999073
2,Glendale,91206,34.162515,-118.203869
3,Costa Mesa,92627,33.645672,-117.922613
4,Martinez,94553,38.014457,-122.115432
5,Camarillo,93010,34.227846,-119.079903
6,Midpines,95345,37.581496,-119.972762
7,Lompoc,93437,34.757477,-120.550507
8,Napa,94558,38.489789,-122.27011
9,Simi Valley,93063,34.296813,-118.685703
10,Sheridan,95681,38.984756,-121.345074
11,Rancho Santa Fe,92091,32.99356,-117.207121
12,Sunnyvale,94086,37.378541,-122.020456
13,Antelope,95843,38.715498,-121.363411
14,La Mesa,91942,32.782501,-117.01611
15,Los Olivos,93441,34.70434,-120.02609
16,Woodlake,93286,36.464635,-119.094348
17,Point Reyes Station,94956,38.060264,-122.830646
18,San Marcos,92078,33.119028,-117.166036
19,Daly City,94015,37.680844,-122.48131
20,Morgan Hill,95037,37.161544,-121.649371
21,Ahwahnee,93601,37.375816,-119.739935
22,Carnelian Bay,96140,39.227434,-120.091806
23,Alpaugh,93201,35.869626,-119.498771
24,Keeler,93530,36.560498,-117.962461
25,Korbel,95550,40.7666,-123.80458
26,Palomar Mountain,92060,33.309852,-116.823091
27,Parlier,93648,36.622237,-119.521126
28,Modesto,95358,37.612612,-121.108568
29,Glen Ellen,95442,38.368744,-122.522642
30,Eureka,95503,40.737431,-124.108897
31,Moss Beach,94038,37.515556,-122.502311
32,Los Angeles,90058,34.001617,-118.222274
33,Los Angeles,90063,34.044271,-118.185237
34,Calexico,92231,32.690654,-115.431225
35,Redding,96003,40.677649,-122.29467
36,San Martin,95046,37.084697,-121.606417
37,Stockton,95209,38.044523,-121.348048
38,Los Angeles,90003,33.964131,-118.272783
39,Huntington Park,90255,33.97803,-118.217141
40,Yermo,92398,35.013299,-116.834092
41,San Diego,92129,32.961064,-117.134917
42,Fremont,94539,37.516791,-121.899117
43,Santa Rosa,95405,38.439696,-122.668817
44,San Jose,95126,37.327069,-121.916819
45,Tujunga,91042,34.296574,-118.244839
46,Visalia,93291,36.391777,-119.372842
47,Lodi,95240,38.123544,-121.159078
48,El Portal,95318,37.654551,-119.822984
49,Calistoga,94515,38.629618,-122.593216
50,Farmington,95230,37.956963,-120.863055
51,Tulelake,96134,41.813521,-121.492666
52,Coleville,96107,38.42528,-119.475741
53,Ojai,93023,34.581308,-118.931948
54,Desert Hot Springs,92241,33.832799,-116.250973
55,North Hollywood,91605,34.207295,-118.400022
56,Inverness,94937,38.099323,-122.945723
57,Santa Rosa,95404,38.526941,-122.709096
58,San Jose,95131,37.387027,-121.897775
59,Wilmington,90744,33.782068,-118.262263
60,Modesto,95357,37.670526,-120.877572
61,San Diego,92113,32.697098,-117.116587
62,Rancho Palos Verdes,90275,33.753146,-118.367459
63,Kenwood,95452,38.419525,-122.521585
64,West Point,95255,38.41935,-120.469545
65,Los Angeles,90062,34.003553,-118.308933
66,Morongo Valley,92256,34.097863,-116.594561
67,Palo Verde,92266,33.3249,-114.758334
68,Valyermo,93563,34.39583,-117.734568
69,Cambria,93428,35.591387,-121.032256
70,Round Mountain,96084,40.923558,-122.059933
71,Klamath,95548,41.572813,-124.035011
72,Fresno,93650,36.841655,-119.797113
73,Angwin,94508,38.542448,-122.419923
74,Le Grand,95333,37.249377,-120.249581
75,Redway,95560,40.142256,-123.852927
76,San Diego,92122,32.85723,-117.209774
77,Monterey Park,91755,34.049172,-118.115022
78,Big Oak Flat,95305,37.818589,-120.256995
79,Stevenson Ranch,91381,34.364153,-118.615583
80,North Highlands,95660,38.671295,-121.388251
81,La Puente,91746,34.038983,-117.991372
82,Glenhaven,95443,39.045246,-122.743181
83,Alhambra,91803,34.074736,-118.145959
84,Santa Monica,90403,34.031529,-118.491156
85,Los Angeles,90001,33.973616,-118.24902
86,Fairfield,94533,38.287136,-122.02711
87,Stockton,95204,37.974498,-121.319568
88,Temecula,92592,33.507255,-117.029473
89,Fallbrook,92028,33.362575,-117.299644
90,Randsburg,93554,35.405722,-117.773354
91,Atascadero,93422,35.453912,-120.69461
92,Planada,95365,37.329725,-120.306399
93,Moorpark,93021,34.312945,-118.858169
94,Solvang,93463,34.624399,-120.137875
95,La Mirada,90638,33.902045,-118.008961
96,Boron,93516,34.95703,-117.73045
97,Desert Center,92239,33.889605,-115.257009
98,Crows Landing,95313,37.435664,-121.049056
99,Tuolumne,95379,37.939768,-120.188002
100,San Diego,92120,32.807867,-117.060993
101,Auburn,95603,38.912881,-121.082766
102,Fresno,93725,36.623632,-119.741322
103,Del Rey,93616,36.657462,-119.595293
104,Redwood City,94065,37.527497,-122.230941
105,Landers,92285,34.341737,-116.539416
106,Hawthorne,90250,33.914775,-118.348083
107,Oceano,93445,35.059695,-120.604741
108,Armona,93202,36.315979,-119.710852
109,Clarksburg,95612,38.384648,-121.578701
110,Irvine,92620,33.716136,-117.752574
111,Scotts Valley,95066,37.070177,-122.010077
112,Salida,95368,37.713152,-121.08739
113,Mckinleyville,95519,40.965011,-124.015255
114,Atherton,94027,37.454924,-122.203168
115,Huntington Beach,92649,33.721917,-118.043237
116,Calimesa,92320,33.982787,-117.057627
117,Daly City,94014,37.691561,-122.445202
118,Middletown,95461,38.787446,-122.58675
119,Berkeley,94705,37.858898,-122.240512
120,Lost Hills,93249,35.637715,-119.893068
121,Garden Grove,92844,33.766476,-117.969795
122,Indio,92203,33.752938,-116.230055
123,Oxnard,93033,34.156629,-119.117218
124,Escondido,92027,33.141265,-116.967221
125,Moreno Valley,92553,33.923149,-117.244933
126,Chino,91710,33.990646,-117.663025
127,Sacramento,95820,38.53508,-121.444144
128,San Diego,92117,32.825086,-117.199424
129,Turlock,95380,37.474396,-120.875917
130,Groveland,95321,37.902968,-119.667544
131,Los Gatos,95033,37.160194,-121.945611
132,Clovis,93611,36.917652,-119.593757
133,Hyampom,96046,40.648024,-123.465088
134,Woodland Hills,91364,34.153733,-118.593408
135,Livingston,95334,37.361987,-120.748394
136,Tulare,93274,36.185471,-119.375243
137,Buellton,93427,34.631362,-120.238218
138,Palmdale,93552,34.557711,-118.029441
139,Midway City,92655,33.744439,-117.98588
140,Folsom,95630,38.672638,-121.147403
141,Oakland,94619,37.787186,-122.14633
142,San Anselmo,94960,37.99272,-122.575026
143,Duarte,91010,34.145695,-117.95982
144,Lake Elsinore,92530,33.655421,-117.391751
145,San Clemente,92672,33.429488,-117.609432
146,Los Angeles,90004,34.076259,-118.310715
147,Downey,90241,33.940884,-118.128628
148,Bodega Bay,94923,38.377165,-123.037957
149,Challenge,95925,39.461768,-121.195825
150,Ludlow,92338,34.702766,-116.093376
151,Santa Clara,95051,37.348129,-121.98469
152,Perris,92571,33.828289,-117.201666
153,Fortuna,95540,40.584991,-124.121504
154,San Dimas,91773,34.102119,-117.815532
155,Rescue,95672,38.724322,-120.991237
156,Clio,96106,39.745805,-120.580882
157,Lotus,95651,38.815515,-120.916997
158,Lompoc,93436,34.601055,-120.382917
159,Pilot Hill,95664,38.803731,-121.043799
160,San Francisco,94133,37.802071,-122.411004
161,Mission Hills,91345,34.266389,-118.459744
162,Los Angeles,90040,33.994524,-118.149953
163,Harbor City,90710,33.798266,-118.300237
164,San Francisco,94108,37.791998,-122.408653
165,Inglewood,90301,33.956445,-118.358634
166,Los Angeles,90015,34.039224,-118.266293
167,Pescadero,94060,37.22565,-122.297533
168,Aromas,95004,36.878364,-121.629781
169,Badger,93603,36.64545,-118.924982
170,Death Valley,92328,36.27688,-117.033326
171,La Puente,91744,34.031441,-117.936436
172,Riverdale,93656,36.452211,-119.94575
173,San Francisco,94104,37.791222,-122.402241
174,Berry Creek,95916,39.657228,-121.37778
175,Fulton,95439,38.493888,-122.777141
176,Capitola,95010,36.977025,-121.952864
177,San Diego,92109,32.787836,-117.232376
178,Claremont,91711,34.127621,-117.717863
179,Glendale,91207,34.182378,-118.262922
180,Gardena,90248,33.876482,-118.284077
181,San Francisco,94134,37.721052,-122.413573
182,San Diego,92126,32.886925,-117.152162
183,Santa Ana,92703,33.748635,-117.906125
184,Snelling,95369,37.521708,-120.426843
185,Darwin,93522,36.319181,-117.593053
186,San Bernardino,92404,34.183286,-117.221722
187,Garberville,95542,40.057784,-123.679461
188,Long Beach,90807,33.830099,-118.182239
189,Upland,91784,34.141146,-117.655583
190,El Dorado Hills,95762,38.684437,-121.055634
191,Santa Rosa,95403,38.488431,-122.752839
192,Malibu,90265,34.074572,-118.831181
193,Santa Rosa,95401,38.460517,-122.790335
194,Oxnard,93035,34.18454,-119.224666
195,Palmdale,93591,34.598221,-117.79593
196,Covina,91723,34.084747,-117.886844
197,San Lucas,93954,36.125529,-120.864443
198,Hoopa,95546,41.163637,-123.704841
199,Long Beach,90802,33.752524,-118.210737
200,Samoa,95564,40.809636,-124.189977
201,Burnt Ranch,95527,40.854512,-123.450097
202,Milford,96121,40.181279,-120.392967
203,Anderson,96007,40.448632,-122.306657
204,San Diego,92123,32.808814,-117.134694
205,Santa Margarita,93453,35.303926,-120.256567
206,Orange,92869,33.792791,-117.789749
207,Los Angeles,90033,34.050198,-118.210946
208,San Jose,95111,37.284265,-121.827673
209,Ione,95640,38.33788,-120.954202
210,San Mateo,94404,37.556094,-122.272437
211,Los Angeles,90034,34.030578,-118.399613
212,San Francisco,94130,37.820894,-122.369725
213,Santa Cruz,95062,36.974575,-121.991149
214,Winchester,92596,33.657433,-117.04254
215,El Cajon,92021,32.832706,-116.873258
216,Sherman Oaks,91403,34.147149,-118.463365
217,Norco,92860,33.925833,-117.559639
218,Thornton,95686,38.157794,-121.520223
219,Lake Hughes,93532,34.659579,-118.584212
220,Paramount,90723,33.897122,-118.164432
221,San Juan Capistrano,92675,33.521447,-117.602555
222,Copperopolis,95228,37.943954,-120.67108
223,Covina,91724,34.08111,-117.853935
224,Colusa,95932,39.273096,-122.050763
225,Cypress,90630,33.818477,-118.038307
226,Sacramento,95814,38.584505,-121.491956
227,Lancaster,93534,34.727529,-118.153098
228,Orange,92867,33.81859,-117.821288
229,Gonzales,93926,36.52588,-121.396719
230,Los Angeles,90045,33.954017,-118.402447
231,San Ysidro,92173,32.555828,-117.040073
232,Novato,94949,38.067204,-122.524004
233,Gilroy,95020,37.03889,-121.528955
234,Oak Park,91377,34.19225,-118.776874
235,South San Francisco,94080,37.654436,-122.426468
236,Vernalis,95385,37.609095,-121.263381
237,San Jose,95117,37.311088,-121.961786
238,Sunnyvale,94089,37.421633,-122.009613
239,Newport Beach,92660,33.634626,-117.874882
240,Stanford,94305,37.424342,-122.165641
241,Los Angeles,90041,34.137412,-118.207607
242,Beverly Hills,90210,34.099891,-118.414338
243,Riverside,92503,33.890046,-117.455583
244,Los Alamitos,90720,33.79499,-118.065591
245,Fresno,93710,36.822715,-119.761826
246,Escondido,92025,33.081478,-117.033814
247,Gardena,90247,33.890853,-118.297967
248,Encinitas,92024,33.054579,-117.25665
249,Sacramento,95829,38.486502,-121.334051
250,South Dos Palos,93665,36.959731,-120.653519
251,Orick,95555,41.336354,-124.044354
252,San Jose,95118,37.255479,-121.889838
253,El Monte,91732,34.074492,-118.01462
254,Spreckels,93962,36.624641,-121.647195
255,Beverly Hills,90212,34.062095,-118.401508
256,La Habra,90631,33.940619,-117.9513
257,Visalia,93277,36.303793,-119.375646
258,San Francisco,94114,37.758085,-122.434801
259,Whittier,90602,33.972119,-118.020188
260,Long Beach,90822,33.778436,-118.118648
261,Stockton,95215,37.946282,-121.139499
262,Essex,92332,34.9436,-115.287901
263,Los Gatos,95030,37.222842,-121.988727
264,Grass Valley,95949,39.099204,-121.137962
265,San Jose,95112,37.343827,-121.883119
266,Fresno,93722,36.78979,-119.929894
267,Encino,91316,34.150354,-118.518292
268,Bellflower,90706,33.887676,-118.127289
269,Sonora,95370,37.982716,-120.343732
270,Highland,92346,34.129677,-117.154277
271,Los Angeles,90071,34.052917,-118.255178
272,Long Beach,90805,33.864622,-118.179626
273,Herlong,96113,40.198234,-120.18089
274,Petaluma,94954,38.235021,-122.557332
275,Mojave,93501,35.097323,-118.171288
276,Callahan,96014,41.388397,-122.794636
277,Bodega,94922,38.343282,-122.9755
278,Denair,95316,37.524721,-120.757977
279,Wrightwood,92397,34.358321,-117.618263
280,Monterey,93940,36.362741,-121.869685
281,Palo Alto,94301,37.444314,-122.149996
282,Jamestown,95327,37.84771,-120.486589
283,Campbell,95008,37.279689,-121.954567
284,Alderpoint,95511,40.166028,-123.584144
285,Garden Grove,92843,33.764018,-117.931507
286,Oak Run,96069,40.689243,-122.037023
287,Madison,95653,38.674276,-121.961866
288,Van Nuys,91406,34.195685,-118.490752
289,Escondido,92026,33.21846,-117.116916
290,Cedarville,96104,41.505916,-120.152505
291,Lomita,90717,33.794209,-118.317354
292,Kelseyville,95451,38.93496,-122.792243
293,Orangevale,95662,38.689174,-121.218435
294,Pinecrest,95364,38.224869,-119.755729
295,Beale Afb,95903,39.125311,-121.392283
296,Sacramento,95835,38.685069,-121.543709
297,Greenville,95947,40.160386,-120.835428
298,Fort Bragg,95437,39.455555,-123.683979
299,Mecca,92254,33.543835,-115.993906
300,Torrance,90504,33.867257,-118.330794
301,Victorville,92394,34.567058,-117.362329
302,Poway,92064,32.984395,-117.013454
303,Mount Hermon,95041,37.051166,-122.056194
304,Santa Barbara,93109,34.406256,-119.726936
305,Taylorsville,95983,40.053684,-120.743116
306,Pine Valley,91962,32.800671,-116.483363
307,Loma Mar,94021,37.266388,-122.26308
308,Bangor,95914,39.396585,-121.38029
309,Guinda,95637,38.830739,-122.196202
310,Riverside,92508,33.885499,-117.324959
311,Rancho Cordova,95742,38.591134,-121.161585
312,Sultana,93666,36.545353,-119.338535
313,Fort Irwin,92310,35.349241,-116.770281
314,La Mesa,91941,32.759327,-116.99726
315,Canyon Dam,95923,40.171312,-121.120605
316,San Jose,95116,37.350284,-121.852855
317,Topanga,90290,34.115192,-118.61017
318,Capay,95607,38.681651,-122.130569
319,Stanton,90680,33.801869,-117.995068
320,Sacramento,95818,38.556306,-121.495817
321,Stockton,95219,38.029729,-121.387999
322,Felton,95018,37.089111,-122.062213
323,Lewiston,96052,40.704293,-122.803899
324,Sun Valley,91352,34.231053,-118.338307
325,Anza,92539,33.527605,-116.666551
326,Bell,90201,33.970343,-118.171368
327,Forest Ranch,95942,40.077028,-121.494168
328,Jamul,91935,32.695681,-116.798386
329,Azusa,91702,34.174493,-117.87068
330,Montgomery Creek,96065,40.877552,-121.885884
331,Lodi,95242,38.128087,-121.4078
332,Leggett,95585,39.873371,-123.741474
333,Rough And Ready,95975,39.225634,-121.156163
334,Petaluma,94952,38.237018,-122.77872
335,Hornitos,95325,37.479926,-120.230424
336,Dixon,95620,38.392821,-121.799917
337,Flournoy,96029,39.84784,-122.544556
338,Thermal,92274,33.53604,-116.119222
339,Lafayette,94549,37.907777,-122.127161
340,Pleasanton,94588,37.685052,-121.912061
341,Whitmore,96096,40.637105,-121.906949
342,Alameda,94502,37.724817,-122.224363
343,Herald,95638,38.313447,-121.123886
344,Guerneville,95446,38.52576,-123.013347
345,Imperial Beach,91932,32.579134,-117.119009
346,Benicia,94510,38.113533,-122.11926
347,Biola,93606,36.798882,-120.019511
348,Los Angeles,90049,34.091829,-118.491244
349,San Francisco,94112,37.720498,-122.443119
350,Chester,96020,40.243494,-121.154733
351,Hilmar,95324,37.394536,-120.890747
352,San Jose,95133,37.371862,-121.860349
353,Seeley,92273,32.790282,-115.689559
354,Penn Valley,95946,39.203817,-121.19584
355,San Jose,95148,37.339533,-121.777179
356,Bakersfield,93304,35.339796,-119.023552
357,Etna,96027,41.405193,-123.008567
358,Willows,95988,39.493991,-122.286363
359,Mather,95655,38.549822,-121.266725
360,Fairfax,94930,37.971751,-122.611873
361,Hydesville,95547,40.557314,-124.081662
362,Graton,95444,38.434362,-122.86891
363,Shafter,93263,35.490705,-119.286833
364,Whittier,90601,34.007353,-118.033683
365,San Simeon,93452,35.746484,-121.223355
366,Castro Valley,94552,37.722727,-122.02157
367,Olivehurst,95961,39.082568,-121.55325
368,Ranchita,92066,33.215251,-116.53633
369,Dunlap,93621,36.789213,-119.140338
370,Comptche,95427,39.239818,-123.565432
371,Vista,92084,33.22784,-117.200024
372,Soquel,95073,37.023669,-121.946461
373,Shasta Lake,96019,40.692523,-122.369876
374,North Hills,91343,34.238802,-118.482296
375,Rancho Cordova,95670,38.602723,-121.279913
376,Wasco,93280,35.652242,-119.4464
377,Garden Grove,92840,33.787165,-117.931889
378,Pasadena,91103,34.167465,-118.165327
379,Irvine,92618,33.667145,-117.732135
380,North Hollywood,91602,34.15136,-118.364786
381,Maywood,90270,33.988572,-118.186565
382,Newhall,91321,34.370378,-118.504118
383,Murphys,95247,38.147852,-120.440124
384,San Clemente,92673,33.4725,-117.584273
385,Ferndale,95536,40.4785,-124.301372
386,Arcata,95521,40.839958,-124.003757
387,Ceres,95307,37.553469,-120.952825
388,Elk Grove,95758,38.35363,-121.44195
389,Wilton,95693,38.392559,-121.225093
390,Douglas City,96024,40.586588,-122.903677
391,White Water,92282,33.972293,-116.654195
392,Smartville,95977,39.176595,-121.291692
393,Coarsegold,93614,37.212191,-119.749323
394,Merced,95348,37.40122,-120.514191
395,Aguanga,92536,33.482243,-116.827173
396,Alviso,95002,37.449537,-121.994813
397,Palm Springs,92264,33.745746,-116.514215
398,Rancho Cucamonga,91739,34.133809,-117.523724
399,Seaside,93955,36.625114,-121.823565
400,Orleans,95556,41.269521,-123.546958
401,Nevada City,95959,39.333737,-120.858667
402,Monte Rio,95462,38.471049,-123.015549
403,Chino Hills,91709,33.942895,-117.725644
404,Chowchilla,93610,37.100948,-120.270136
405,Phelan,92371,34.441123,-117.537886
406,Elk,95432,39.108252,-123.645121
407,Los Angeles,90065,34.108833,-118.229715
408,Bakersfield,93308,35.559617,-118.925185
409,Placentia,92870,33.881158,-117.854783
410,Branscomb,95417,39.710591,-123.682799
411,Fresno,93727,36.751489,-119.68072
412,Winters,95694,38.578604,-122.024579
413,Diamond Bar,91765,33.992416,-117.807874
414,Oro Grande,92368,34.647959,-117.296957
415,Buena Park,90620,33.845706,-118.012204
416,Richmond,94805,37.941456,-122.320968
417,Yreka,96097,41.764869,-122.671316
418,Los Angeles,90066,34.002028,-118.430656
419,Stockton,95203,37.954089,-121.329761
420,Elverta,95626,38.734997,-121.463719
421,Los Angeles,90023,34.017697,-118.200577
422,Westlake Village,91361,34.130992,-118.894673
423,Santa Barbara,93105,34.037342,-119.80079
424,Dutch Flat,95714,39.197215,-120.83679
425,San Diego,92103,32.747484,-117.166877
426,Mi Wuk Village,95346,38.121601,-120.133915
427,Milpitas,95035,37.441931,-121.878502
428,West Hollywood,90069,34.093781,-118.381061
429,Stockton,95207,38.002125,-121.324979
430,Madera,93637,36.902954,-120.194274
431,Half Moon Bay,94019,37.45567,-122.407992
432,Davis,95616,38.508735,-121.678813
433,Gold Run,95717,39.170376,-120.838404
434,Dos Rios,95429,39.756049,-123.358701
435,Manteca,95337,37.750822,-121.238423
436,Fresno,93706,36.654614,-119.903674
437,Los Angeles,90064,34.037251,-118.423573
438,Grover Beach,93433,35.120833,-120.61843
439,Redwood City,94062,37.410567,-122.297152
440,Downey,90240,33.956228,-118.120993
441,Covina,91722,34.097345,-117.906736
442,Mountain View,94040,37.380662,-122.086022
443,Fullerton,92833,33.877639,-117.961212
444,Adin,96006,41.171578,-120.913161
445,Butte City,95920,39.449794,-121.936372
446,Bakersfield,93309,35.342891,-119.064803
447,Inglewood,90305,33.958134,-118.330905
448,Kingsburg,93631,36.478239,-119.52137
449,Tarzana,91356,34.157137,-118.548511
450,Buena Park,90621,33.874224,-117.993368
451,Temecula,92590,33.475493,-117.219551
452,Cool,95614,38.880622,-120.973865
453,Pauma Valley,92061,33.313828,-116.940501
454,June Lake,93529,37.730269,-119.055813
455,Colton,92324,34.030915,-117.273201
456,Carmel Valley,93924,36.414611,-121.6386
457,Brawley,92227,33.03933,-115.191857
458,Big Bear Lake,92315,34.242058,-116.89802
459,Stockton,95202,37.959706,-121.287669
460,Pala,92059,33.384345,-117.072619
461,Anaheim,92805,33.830209,-117.906099
462,Oakland,94618,37.84551,-122.235181
463,San Francisco,94102,37.7795,-122.419233
464,Newman,95360,37.343846,-121.039391
465,Valley Village,91607,34.165783,-118.399795
466,Tustin,92780,33.735802,-117.818805
467,Los Angeles,90026,34.078991,-118.263804
468,Pasadena,91101,34.146635,-118.139225
469,San Diego,92105,32.741859,-117.090353
470,Fullerton,92835,33.902211,-117.914922
471,Bishop,93514,37.04584,-118.397236
472,Grenada,96038,41.599978,-122.539381
473,Foothill Ranch,92610,33.698728,-117.67768
474,Palm Desert,92211,33.762759,-116.324817
475,Woodland,95776,38.694081,-121.694431
476,Rohnert Park,94928,38.34719,-122.697822
477,Corona Del Mar,92625,33.600987,-117.862734
478,Kettleman City,93239,35.996923,-120.000951
479,Altadena,91001,34.196837,-118.142236
480,Los Angeles,90059,33.927254,-118.249826
481,Posey,93260,35.861928,-118.636698
482,Los Angeles,90068,34.137411,-118.328915
483,Laytonville,95454,39.806141,-123.531098
484,Los Angeles,90047,33.958149,-118.308441
485,Orange,92866,33.784597,-117.844535
486,Cutler,93615,36.497895,-119.285484
487,Alameda,94501,37.774633,-122.274434
488,San Francisco,94107,37.768881,-122.395521
489,San Diego,92128,33.000269,-117.072093
490,Mission Viejo,92691,33.611945,-117.665867
491,Surfside,90743,33.728273,-118.085304
492,Newport Beach,92661,33.601309,-117.902304
493,Los Angeles,90036,34.070291,-118.349191
494,Helendale,92342,34.757783,-117.33997
495,North Palm Springs,92258,33.906496,-116.569499
496,Shingle Springs,95682,38.598936,-120.963092
497,Saratoga,95070,37.257772,-122.051824
498,Concord,94518,37.950248,-122.022455
499,Woodacre,94973,38.005839,-122.638155
500,North Hollywood,91606,34.187599,-118.387125
501,West Covina,91792,34.024405,-117.898722
502,Concord,94519,37.990118,-122.012188
503,San Francisco,94132,37.722302,-122.491129
504,Trinidad,95570,41.162295,-124.027381
505,Sacramento,95830,38.490508,-121.284171
506,Cassel,96016,40.936285,-121.572692
507,Pixley,93256,35.957019,-119.330928
508,Columbia,95310,38.085839,-120.37855
509,Sheep Ranch,95251,38.244806,-120.417301
510,Hamilton City,95951,39.732767,-122.042298
511,San Luis Obispo,93401,35.233745,-120.626442
512,Pine Grove,95665,38.400264,-120.641274
513,Livermore,94550,37.571748,-121.659562
514,Lucerne Valley,92356,34.508417,-116.856103
515,Honeydew,95545,40.342928,-124.063329
516,San Diego,92104,32.741499,-117.127409
517,Coalinga,93210,36.186867,-120.387793
518,Cressey,95312,37.420273,-120.66527
519,Burney,96013,40.946785,-121.719489
520,River Pines,95675,38.545775,-120.743325
521,Los Angeles,90048,34.072945,-118.37267
522,Los Angeles,90039,34.110845,-118.259595
523,Forks Of Salmon,96031,41.232128,-123.194748
524,Marina Del Rey,90292,33.977468,-118.445475
525,Loomis,95650,38.809175,-121.171375
526,Redding,96001,40.587919,-122.464732
527,Pittsburg,94565,38.006047,-121.916834
528,Clearlake Oaks,95423,39.07116,-122.598542
529,Sun City,92585,33.739412,-117.173334
530,Lakewood,90713,33.847755,-118.112532
531,Paradise,95969,39.69676,-121.644379
532,Alta,95701,39.218096,-120.79153
533,San Jose,95129,37.305622,-122.000887
534,Los Molinos,96055,40.059385,-122.091481
535,Oakland,94601,37.776523,-122.219268
536,Calpine,96124,39.672813,-120.456699
537,Big Bar,96010,40.775272,-123.287414
538,Dos Palos,93620,37.045728,-120.630682
539,Mokelumne Hill,95245,38.304194,-120.592431
540,Chico,95973,39.903272,-121.843567
541,Santa Ana,92701,33.748478,-117.858918
542,Hesperia,92345,34.361387,-117.337509
543,Vacaville,95688,38.419088,-122.024568
544,Encino,91436,34.152875,-118.486056
545,Palmdale,93551,34.613476,-118.256358
546,Woodland Hills,91367,34.178068,-118.615714
547,Jolon,93928,35.930782,-121.189757
548,Mountain View,94043,37.419725,-122.062947
549,Clearlake,95422,38.965804,-122.631779
550,Novato,94947,38.112166,-122.634384
551,Agoura Hills,91301,34.129058,-118.759788
552,Oakland,94621,37.750553,-122.197175
553,Pleasant Grove,95668,38.833554,-121.498102
554,Thousand Palms,92276,33.849263,-116.382778
555,Bodfish,93205,35.523991,-118.400432
556,Monrovia,91016,34.1528,-118.000482
557,Castaic,91384,34.506627,-118.699048
558,Fiddletown,95629,38.513484,-120.704613
559,Squaw Valley,93675,36.719141,-119.202677
560,Santa Ynez,93460,34.630356,-120.032564
561,Forbestown,95941,39.531028,-121.24807
562,Wilseyville,95257,38.392686,-120.415951
563,Corona,92883,33.762351,-117.488725
564,Junction City,96048,40.913192,-123.06597
565,Escondido,92029,33.079834,-117.134275
566,Los Angeles,90029,34.089953,-118.294824
567,San Diego,92121,32.898613,-117.202937
568,Port Hueneme,93041,34.110124,-119.100972
569,Garden Grove,92841,33.786738,-117.982564
570,Clements,95227,38.227285,-121.02789
571,Lawndale,90260,33.88856,-118.351813
572,Santee,92071,32.847336,-116.997605
573,Acampo,95220,38.200231,-121.235034
574,South El Monte,91733,34.04622,-118.053753
575,San Diego,92101,32.72523,-117.171346
576,Nicolaus,95659,38.788898,-121.608624
577,Plymouth,95669,38.489273,-120.891614
578,Burbank,91504,34.213049,-118.317651
579,Sierra City,96125,39.600599,-120.636358
580,Fresno,93703,36.768774,-119.762633
581,Parker Dam,92267,34.273872,-114.192901
582,Zenia,95595,40.170357,-123.417298
583,Fresno,93711,36.833002,-119.82947
584,Guatay,91931,32.857946,-116.561917
585,Cobb,95426,38.838088,-122.73203
586,Hayward,94544,37.639215,-122.037554
587,San Jose,95123,37.238758,-121.828375
588,Glendale,91208,34.195386,-118.238508
589,San Gregorio,94074,37.331762,-122.341444
590,Colfax,95713,39.084645,-120.894014
591,Los Angeles,90028,34.099869,-118.326843
592,Whittier,90604,33.929704,-118.01208
593,Sacramento,95831,38.494832,-121.529447
594,Los Angeles,90024,34.066303,-118.435479
595,Hayward,94541,37.674002,-122.076796
596,Mendocino,95460,39.305545,-123.743697
597,San Francisco,94127,37.736535,-122.45732
598,Los Angeles,90021,34.029043,-118.239504
599,Rosemead,91770,34.065108,-118.082791
600,Rancho Cucamonga,91730,34.10097,-117.57882
601,El Dorado,95623,38.63153,-120.842609
602,Angelus Oaks,92305,34.1678,-116.86433
603,Portola,96122,39.786755,-120.445626
604,Westwood,96137,40.271535,-121.018087
605,San Diego,92116,32.765299,-117.122565
606,Concord,94520,38.013825,-122.039144
607,Shaver Lake,93664,37.223,-119.001021
608,Bridgeport,93517,38.184583,-119.286558
609,Lee Vining,93541,37.890145,-119.184087
610,Fawnskin,92333,34.274846,-116.937581
611,Boonville,95415,39.025867,-123.381544
612,La Palma,90623,33.850504,-118.039892
613,Magalia,95954,39.933852,-121.584371
614,French Gulch,96033,40.740138,-122.587476
615,Corona,92881,33.833686,-117.513063
616,Woodbridge,95258,38.169605,-121.310964
617,San Pedro,90732,33.744119,-118.31448
618,Pioneertown,92268,34.201108,-116.593456
619,Spring Valley,91977,32.726627,-116.994608
620,Mission Viejo,92692,33.60693,-117.644253
621,Berkeley,94709,37.878554,-122.26609
622,Twain Harte,95383,38.107441,-120.230625
623,Berkeley,94702,37.866009,-122.286228
624,Richgrove,93261,35.809921,-119.127437
625,Klamath River,96050,41.816595,-122.948287
626,Oakley,94561,37.999406,-121.686241
627,Grimes,95950,39.033058,-121.895718
628,Winnetka,91306,34.209532,-118.577563
629,San Jacinto,92582,33.806708,-117.02007
630,Porter Ranch,91326,34.281911,-118.556218
631,Los Angeles,90056,33.987945,-118.370442
632,Ocotillo,92259,32.698964,-115.886656
633,Los Angeles,90032,34.078821,-118.177576
634,San Lorenzo,94580,37.676249,-122.132415
635,Sunset Beach,90742,33.719221,-118.073596
636,Hood,95639,38.375325,-121.507935
637,Byron,94514,37.83323,-121.601461
638,Moreno Valley,92551,33.88274,-117.224878
639,Coachella,92236,33.680031,-116.171678
640,Vallecito,95251,38.055562,-120.456298
641,Farmersville,93223,36.29878,-119.201028
642,San Diego,92107,32.741852,-117.243453
643,Chico,95926,39.745712,-121.84333
644,Boulder Creek,95006,37.171727,-122.142961
645,Oregon House,95962,39.342587,-121.249833
646,Santa Ana,92707,33.714829,-117.872941
647,Glendale,91201,34.17051,-118.289463
648,Fall River Mills,96028,41.017282,-121.468945
649,South Pasadena,91030,34.110444,-118.156957
650,Fresno,93704,36.799648,-119.801247
651,Shoshone,92384,35.924252,-116.188668
652,Santa Monica,90402,34.035849,-118.503508
653,Brookdale,95007,37.106902,-122.100006
654,Desert Hot Springs,92240,33.948558,-116.516976
655,Los Angeles,90010,34.062125,-118.315709
656,Cathedral City,92234,33.829583,-116.474131
657,Torrance,90501,33.833699,-118.314387
658,Palermo,95968,39.435756,-121.552071
659,Santa Clara,95050,37.351214,-121.952417
660,Amador City,95601,38.431407,-120.8421
661,Lindsay,93247,36.205465,-119.085807
662,Happy Camp,96039,41.831901,-123.487478
663,Lockwood,93932,35.989792,-121.055933
664,Capistrano Beach,92624,33.458754,-117.665104
665,Big Creek,93605,37.17277,-119.2997
666,Friant,93626,37.027663,-119.69056
667,Lakehead,96051,40.883853,-122.418258
668,Rodeo,94572,38.027218,-122.23463
669,Redwood City,94061,37.461251,-122.235414
670,Grizzly Flats,95636,38.636102,-120.522149
671,Perris,92570,33.787298,-117.320676
672,Brisbane,94005,37.684694,-122.40712
673,San Joaquin,93660,36.600193,-120.153393
674,San Diego,92111,32.805518,-117.169052
675,Los Angeles,90077,34.102084,-118.451629
676,Imperial,92251,32.858595,-115.662709
677,San Miguel,93451,35.886767,-120.608661
678,Avila Beach,93424,35.186644,-120.728305
679,Hemet,92544,33.644585,-116.871544
680,Palos Verdes Peninsula,90274,33.788208,-118.404955
681,Wendel,96136,40.345949,-120.081187
682,Fremont,94536,37.572273,-121.964583
683,Los Angeles,90007,34.027337,-118.28515
684,Somes Bar,95568,41.444606,-123.471895
685,Redding,96002,40.527834,-122.318749
686,Greenbrae,94904,37.946617,-122.563571
687,Los Angeles,90017,34.052842,-118.264495
688,Windsor,95492,38.527297,-122.810044
689,San Diego,92127,33.017518,-117.118456
690,Ontario,91761,34.035602,-117.591528
691,Seal Beach,90740,33.75462,-118.071128
692,Janesville,96114,40.294034,-120.512622
693,Lemon Grove,91945,32.733564,-117.033713
694,North Hollywood,91601,34.1692,-118.372498
695,Jenner,95450,38.505995,-123.187019
696,Montara,94037,37.540582,-122.509594
697,Los Angeles,90067,34.057496,-118.413959
698,San Diego,92130,32.957195,-117.202542
699,La Grange,95329,37.666587,-120.411517
700,San Diego,92106,32.71346,-117.236378
701,Alamo,94507,37.855717,-121.994813
702,Madera,93638,37.004068,-119.930027
703,Stonyford,95979,39.288127,-122.415841
704,Phillipsville,95559,40.184094,-123.745487
705,Forest Knolls,94933,38.010092,-122.689442
706,Rancho Cucamonga,91737,34.245289,-117.642503
707,Yorkville,95494,38.888351,-123.239647
708,Volcano,95689,38.481902,-120.603668
709,Montrose,91020,34.2112,-118.230625
710,West Sacramento,95691,38.627951,-121.593287
711,Ladera Ranch,92694,33.569186,-117.640055
712,Rio Dell,95562,40.485849,-124.163234
713,Redlands,92374,34.064073,-117.166158
714,Somis,93066,34.297628,-119.014627
715,National City,91950,32.67102,-117.095235
716,Mc Farland,93250,35.666886,-119.186717
717,Santa Clara,95054,37.393554,-121.965114
718,Old Station,96071,40.656287,-121.428965
719,Pinon Hills,92372,34.459322,-117.629729
720,Hinkley,92347,34.983808,-117.239306
721,Fellows,93224,35.215731,-119.57013
722,Prather,93651,37.007238,-119.505661
723,Emeryville,94608,37.83726,-122.287648
724,Pearblossom,93553,34.445239,-117.894868
725,Carson,90746,33.859171,-118.252272
726,Sequoia National Park,93262,36.527243,-118.594938
727,Los Angeles,90044,33.952714,-118.292061
728,Pacoima,91331,34.255442,-118.421314
729,Kings Beach,96143,39.246654,-120.029273
730,Canby,96015,41.486953,-120.913975
731,Lake Forest,92630,33.644849,-117.684254
732,Riverside,92507,33.976328,-117.319786
733,Corona,92880,33.918043,-117.617809
734,Canyon Country,91351,34.422519,-118.420717
735,Aliso Viejo,92656,33.571259,-117.731917
736,San Diego,92115,32.762506,-117.07245
737,Cottonwood,96022,40.336392,-122.448533
738,Mad River,95552,40.390301,-123.412327
739,Castro Valley,94546,37.708327,-122.083473
740,Firebaugh,93622,36.785618,-120.625382
741,South Gate,90280,33.944624,-118.192615
742,Washington,95986,39.34128,-120.786867
743,Beverly Hills,90211,34.063947,-118.383001
744,Redcrest,95569,40.363446,-123.835041
745,Standish,96128,40.346634,-120.386422
746,Modesto,95351,37.621458,-121.012295
747,San Ramon,94583,37.766556,-121.976784
748,Santa Monica,90401,34.015481,-118.493231
749,San Bernardino,92401,34.105935,-117.2914
750,Long Beach,90810,33.819814,-118.222416
751,Downey,90242,33.921793,-118.140588
752,San Diego,92154,32.578103,-117.012975
753,Riverside,92504,33.9108,-117.398153
754,Fullerton,92831,33.879983,-117.895482
755,Mount Shasta,96067,41.33832,-122.290756
756,Weldon,93283,35.55647,-118.244914
757,Rancho Santa Margarita,92688,33.624654,-117.611733
758,Alhambra,91801,34.090925,-118.128164
759,Oakdale,95361,37.785033,-120.776141
760,Culver City,90232,34.019323,-118.391902
761,Elk Grove,95624,38.434138,-121.30587
762,Irvine,92604,33.688546,-117.788091
763,Olympic Valley,96146,39.191797,-120.212401
764,Edwards,93523,34.966777,-117.961179
765,Deer Park,94576,38.554383,-122.474773
766,Lakeshore,93634,37.290606,-119.216328
767,Sacramento,95832,38.445939,-121.496855
768,Anaheim,92808,33.850452,-117.726668
769,Shasta,96087,40.617614,-122.512861
770,Sacramento,95816,38.574856,-121.46504
771,San Jose,95119,37.233226,-121.78809
772,Stockton,95212,38.049457,-121.21653
773,Walnut Creek,94598,37.916648,-122.008483
774,Fish Camp,93623,37.483535,-119.679414
775,Gerber,96035,40.03194,-122.176023
776,Los Angeles,90035,34.051809,-118.383843
777,Culver City,90230,33.993991,-118.39704
778,Coronado,92118,32.68674,-117.186612
779,Susanville,96130,40.559177,-120.612113
780,Del Mar,92014,32.948262,-117.256086
781,Oakland,94612,37.809014,-122.269739
782,Cantua Creek,93608,36.488056,-120.407691
783,Bethel Island,94511,38.050558,-121.646924
784,San Jose,95122,37.32886,-121.834567
785,Heber,92249,32.730583,-115.501083
786,San Jose,95130,37.277592,-121.986477
787,Victorville,92392,34.486835,-117.362274
788,San Diego,92110,32.76501,-117.19938
789,Niland,92257,33.345825,-115.596574
790,El Sobrante,94803,37.963995,-122.288296
791,Lynwood,90262,33.923573,-118.200669
792,Mentone,92359,34.103578,-117.04054
793,Freedom,95019,36.936228,-121.785559
794,San Ardo,93450,35.996008,-120.85305
795,San Diego,92124,32.827238,-117.089287
796,Arcadia,91007,34.128284,-118.047732
797,Ivanhoe,93235,36.385818,-119.224243
798,Nice,95464,39.12334,-122.838198
799,Citrus Heights,95621,38.69549,-121.307864
800,Los Angeles,90038,34.088017,-118.327168
801,Riverside,92501,33.994676,-117.372498
802,Los Angeles,90037,34.002642,-118.287596
803,Oakland,94611,37.828416,-122.216005
804,Bakersfield,93305,35.391733,-118.984109
805,Studio City,91604,34.139082,-118.39275
806,Terra Bella,93270,35.939068,-119.043666
807,Orange Cove,93646,36.633498,-119.298895
808,Wheatland,95692,39.043387,-121.409837
809,Waterford,95386,37.669516,-120.626964
810,West Covina,91791,34.061634,-117.893169
811,Cedar Glen,92321,34.255203,-117.175654
812,Weed,96094,41.465121,-122.380947
813,Descanso,91916,32.912664,-116.635387
814,Fresno,93705,36.78724,-119.827813
815,Cupertino,95014,37.306612,-122.080621
816,Tecate,91980,32.587557,-116.636816
817,Santa Barbara,93111,34.460197,-119.802602
818,Chula Vista,91913,32.64164,-116.985026
819,Modesto,95354,37.639029,-120.964772
820,Palo Cedro,96073,40.582399,-122.195512
821,San Mateo,94401,37.590421,-122.306467
822,Baldwin Park,91706,34.098275,-117.967399
823,Meadow Vista,95722,39.003358,-121.022539
824,Soledad,93960,36.414216,-121.360597
825,Bakersfield,93301,35.383937,-119.020428
826,Hickman,95323,37.605926,-120.69955
827,Tehachapi,93561,35.073777,-118.652112
828,Sacramento,95821,38.625096,-121.383658
829,Santa Barbara,93101,34.419203,-119.710008
830,Long Beach,90804,33.783047,-118.1486
831,Pasadena,91104,34.165383,-118.123752
832,Auburn,95602,38.99003,-121.114408
833,Forestville,95436,38.499302,-122.92444
834,Richvale,95974,39.495768,-121.747472
835,Georgetown,95634,38.9386,-120.785514
836,Riverbank,95367,37.734971,-120.954271
837,Avery,95224,38.208336,-120.339938
838,Sacramento,95823,38.475465,-121.443625
839,Biggs,95917,39.457388,-121.818201
840,Nicasio,94946,38.065359,-122.665566
841,Torrance,90505,33.807882,-118.347957
842,Camp Nelson,93208,36.057458,-118.591951
843,Tahoe Vista,96148,39.24124,-120.054765
844,Brentwood,94513,37.908242,-121.682472
845,Acton,93510,34.501452,-118.207862
846,Manton,96059,40.426679,-121.850421
847,Stockton,95205,37.965695,-121.260051
848,Wallace,95254,38.192608,-120.957842
849,Temecula,92591,33.540604,-117.10909
850,Cazadero,95421,38.578807,-123.19338
851,Carlotta,95528,40.497283,-123.93037
852,Twin Bridges,95735,38.805481,-120.13287
853,Mira Loma,91752,33.999992,-117.535395
854,San Diego,92139,32.677716,-117.047666
855,La Quinta,92253,33.695532,-116.310571
856,Salinas,93907,36.77462,-121.664714
857,Creston,93432,35.480896,-120.469476
858,Turlock,95382,37.529656,-120.854357
859,Riverside,92506,33.930931,-117.361788
860,Los Angeles,90043,33.988543,-118.334081
861,Cotati,94931,38.326215,-122.718742
862,Fresno,93728,36.757345,-119.818274
863,Artesia,90701,33.867593,-118.080637
864,Los Angeles,90046,34.108455,-118.362081
865,Santa Barbara,93103,34.438581,-119.685368
866,Banning,92220,33.936298,-116.849577
867,Sanger,93657,36.819628,-119.440414
868,Los Gatos,95032,37.233034,-121.947427
869,Penryn,95663,38.859093,-121.182872
870,Glenn,95943,39.597975,-122.032248
871,Ontario,91762,34.057256,-117.667677
872,Newport Beach,92662,33.606336,-117.893042
873,Eureka,95501,40.796621,-124.15428
874,Oakhurst,93644,37.648647,-119.231447
875,Westport,95488,39.724433,-123.767578
876,Pasadena,91105,34.13946,-118.166649
877,Castroville,95012,36.784481,-121.759054
878,Ventura,93001,34.360261,-119.306383
879,Glendale,91202,34.167926,-118.267539
880,Bakersfield,93307,35.280113,-118.962329
881,Richmond,94804,37.921034,-122.341798
882,Dana Point,92629,33.477923,-117.705314
883,Gridley,95948,39.346898,-121.759537
884,San Jose,95139,37.218705,-121.762429
885,San Jose,95110,37.34667,-121.910019
886,Corcoran,93212,36.04533,-119.532424
887,Dorris,96023,41.949216,-122.050062
888,Vacaville,95687,38.333133,-121.920151
889,San Jose,95113,37.333851,-121.891147
890,Orange,92868,33.787796,-117.875928
891,Shandon,93461,35.634488,-120.293534
892,Loma Linda,92354,34.049315,-117.255974
893,Somerset,95684,38.606703,-120.586659
894,San Bernardino,92410,34.106922,-117.297553
895,San Bernardino,92408,34.084909,-117.258107
896,Upper Lake,95485,39.220368,-122.907693
897,Pasadena,91106,34.139402,-118.128658
898,Hayward,94545,37.62984,-122.120843
899,Pomona,91766,34.042286,-117.756106
900,Bradley,93426,35.842889,-121.004862
901,Sunnyvale,94087,37.3511,-122.037311
902,Santa Cruz,95064,37.007882,-122.065975
903,Cayucos,93430,35.511833,-120.918713
904,Pacific Palisades,90272,34.079449,-118.548306
905,Sacramento,95833,38.619049,-121.517552
906,Redlands,92373,34.003243,-117.138286
907,Valley Ford,94972,38.339996,-122.935056
908,Sacramento,95817,38.550722,-121.457314
909,Cerritos,90703,33.8681,-118.067402
910,Piercy,95587,39.955587,-123.681175
911,Johannesburg,93528,35.363339,-117.637641
912,Lancaster,93535,34.712708,-117.889656
913,San Jacinto,92583,33.796568,-116.924723
914,Lathrop,95330,37.80821,-121.308401
915,Point Arena,95468,38.911299,-123.609588
916,Pebble Beach,93953,36.587497,-121.944815
917,Gasquet,95543,41.867908,-123.794144
918,Keene,93531,35.214982,-118.59049
919,Belvedere Tiburon,94920,37.885629,-122.46858
920,Oroville,95965,39.624561,-121.552866
921,Potrero,91963,32.619465,-116.593605
922,Carmel,93923,36.460611,-121.852507
923,Placerville,95667,38.733714,-120.795213
924,Manchester,95459,38.966713,-123.586412
925,Smith River,95567,41.950683,-124.097094
926,Pioneer,95666,38.546999,-120.271114
927,Monterey Park,91754,34.050322,-118.147037
928,Boulevard,91905,32.677097,-116.304991
929,El Segundo,90245,33.917145,-118.401554
930,Lakewood,90712,33.840524,-118.148403
931,Julian,92036,32.980678,-116.262854
932,Kyburz,95720,38.766036,-120.209673
933,Upland,91786,34.105493,-117.660934
934,Miramonte,93641,36.696759,-119.024051
935,The Sea Ranch,95497,38.696659,-123.436861
936,El Centro,92243,32.770393,-115.60915
937,Templeton,93465,35.536115,-120.739231
938,Burbank,91506,34.169706,-118.323548
939,Arnold,95223,38.32153,-120.236358
940,Greenwood,95635,38.921333,-120.897718
941,Los Angeles,90018,34.028735,-118.317236
942,San Marcos,92069,33.162624,-117.170863
943,Menlo Park,94025,37.449551,-122.183762
944,Stockton,95210,38.033219,-121.297433
945,Corona,92879,33.893823,-117.531446
946,Delhi,95315,37.422961,-120.765493
947,Igo,96047,40.524535,-122.647172
948,Modesto,95355,37.672906,-120.946594
949,Mariposa,95338,37.526791,-119.99437
950,Weott,95571,40.310119,-123.909449
951,San Gabriel,91775,34.114772,-118.089431
952,Exeter,93221,36.301689,-119.018233
953,Burbank,91501,34.188339,-118.300942
954,Cloverdale,95425,38.801936,-122.938935
955,Venice,90291,33.991782,-118.479229
956,Aptos,95003,37.013471,-121.877877
957,Northridge,91325,34.236683,-118.517588
958,Campo Seco,95226,38.233879,-120.861666
959,Menifee,92584,33.653338,-117.178271
960,Stevinson,95374,37.316807,-120.855753
961,Malibu,90263,34.037037,-118.705803
962,Westminster,92683,33.752591,-117.993661
963,Vallejo,94592,38.093701,-122.276589
964,Likely,96116,41.266008,-120.490731
965,Big Bend,96011,41.096569,-121.879082
966,Westmorland,92281,33.03679,-115.60503
967,West Covina,91790,34.066964,-117.937007
968,Los Angeles,90012,34.065875,-118.238728
969,Whittier,90606,33.976678,-118.065875
970,Diamond Springs,95619,38.683605,-120.811852
971,Los Angeles,90057,34.061918,-118.277939
972,Pasadena,91107,34.159007,-118.087353
973,Long Beach,90815,33.797638,-118.11662
974,Albion,95410,39.225694,-123.717354
975,Newport Coast,92657,33.603282,-117.821841
976,Santa Ysabel,92070,33.174725,-116.743329
977,Goleta,93117,34.489983,-120.091246
978,Burbank,91502,34.177267,-118.31003
979,San Pablo,94806,37.980269,-122.342635
980,Walnut,91789,34.018354,-117.85492
981,Isleton,95641,38.154823,-121.601358
982,Compton,90221,33.885811,-118.206459
983,Yuba City,95991,39.02741,-121.614982
984,Port Costa,94569,38.035707,-122.196821
985,Marysville,95901,39.19514,-121.503883
986,Healdsburg,95448,38.618347,-122.908422
987,Strawberry Valley,95981,39.58458,-121.093256
988,Navarro,95463,39.182916,-123.552571
989,Ramona,92065,33.044541,-116.833922
990,Los Angeles,90025,34.046174,-118.446333
991,Cabazon,92230,33.929812,-116.76058
992,Rio Vista,94571,38.148862,-121.737696
993,Danville,94526,37.815459,-121.977203
994,Sacramento,95834,38.646209,-121.52446
995,San Francisco,94116,37.74441,-122.486764
996,Millbrae,94030,37.601248,-122.403099
997,Pomona,91767,34.083086,-117.737997
998,Needles,92363,34.711224,-114.702256
999,Carson,90745,33.822295,-118.26411
1000,Camino,95709,38.748316,-120.675512
1001,Chatsworth,91311,34.294142,-118.603883
1002,San Mateo,94402,37.556634,-122.317723
1003,Norwalk,90650,33.905963,-118.08263
1004,Weaverville,96093,40.759401,-122.939337
1005,Davis,95618,38.544002,-121.685559
1006,Anaheim,92801,33.844983,-117.952151
1007,San Leandro,94579,37.687264,-122.15728
1008,Walnut Creek,94596,37.900662,-122.052782
1009,Chilcoot,96105,39.872961,-120.198876
1010,Hume,93628,36.807595,-118.901544
1011,San Leandro,94577,37.717196,-122.159338
1012,San Rafael,94903,38.018065,-122.546024
1013,Los Angeles,90014,34.043144,-118.251977
1014,Dublin,94568,37.713926,-121.928425
1015,Caruthers,93609,36.5276,-119.865999
1016,Clovis,93612,36.814539,-119.711868
1017,Grass Valley,95945,39.194539,-120.988066
1018,Costa Mesa,92626,33.678591,-117.905471
1019,San Jose,95138,37.246064,-121.749494
1020,Willow Creek,95573,40.949012,-123.655847
1021,Rio Nido,95471,38.522328,-122.97932
1022,Brea,92823,33.924143,-117.79387
1023,Modesto,95356,37.716186,-121.025836
1024,Fountain Valley,92708,33.712036,-117.950113
1025,Santa Rosa,95409,38.468893,-122.580539
1026,Piru,93040,34.432843,-118.730106
1027,Covelo,95428,39.83307,-123.178765
1028,Pleasanton,94566,37.633361,-121.862395
1029,Blairsden Graeagle,96103,39.783747,-120.661032
1030,Homewood,96141,39.117018,-120.212535
1031,Van Nuys,91411,34.17847,-118.459472
1032,Salton City,92275,33.28156,-115.955541
1033,Amboy,92304,34.559882,-115.637164
1034,Castella,96017,41.121108,-122.336613
1035,Salinas,93905,36.667794,-121.601306
1036,Live Oak,95953,39.258746,-121.77697
1037,Tahoe City,96145,39.178337,-120.162806
1038,Campo,91906,32.673483,-116.472863
1039,Birds Landing,94512,38.140719,-121.838298
1040,San Francisco,94115,37.786031,-122.437301
1041,San Carlos,94070,37.497915,-122.267361
1042,Granada Hills,91344,34.291273,-118.505104
1043,Ventura,93004,34.278697,-119.167798
1044,Roseville,95661,38.736685,-121.251984
1045,Inglewood,90304,33.936827,-118.359824
1046,Earp,92242,34.137742,-114.36514
1047,Sun City,92587,33.69887,-117.25071
1048,Camptonville,95922,39.432127,-121.099287
1049,Clipper Mills,95930,39.562239,-121.14836
1050,Temple City,91780,34.101608,-118.055848
1051,Patterson,95363,37.410236,-121.320337
1052,Chula Vista,91910,32.636792,-117.054989
1053,San Francisco,94118,37.781304,-122.461522
1054,Hat Creek,96040,40.789799,-121.474529
1055,Oceanside,92056,33.194742,-117.29032
1056,Fresno,93726,36.793601,-119.761131
1057,Baker,92309,35.28952,-116.092214
1058,Three Rivers,93271,36.413433,-118.854708
1059,Porterville,93257,36.008958,-118.891593
1060,Oakland,94609,37.834341,-122.26437
1061,Littlerock,93543,34.505273,-117.955054
1062,Irvine,92602,33.720359,-117.733655
1063,Gualala,95445,38.848082,-123.50608
1064,Garden Grove,92845,33.782955,-118.026456
1065,Fresno,93721,36.732694,-119.783786
1066,Eagleville,96110,41.280341,-120.150381
1067,Buttonwillow,93206,35.451402,-119.488413
1068,Arbuckle,95912,38.982373,-122.047751
1069,Lookout,96054,41.280478,-121.160249
1070,Running Springs,92382,34.186211,-117.07683
1071,Sutter,95982,39.172777,-121.805845
1072,Bonita,91902,32.67117,-117.00232
1073,Sylmar,91342,34.321621,-118.399841
1074,Long Beach,90806,33.802664,-118.179971
1075,Woodland,95695,38.71967,-121.862416
1076,Weimar,95736,39.00978,-120.978273
1077,Yucaipa,92399,34.04597,-117.011825
1078,Big Bear City,92314,34.278967,-116.773825
1079,Brea,92821,33.930199,-117.862898
1080,San Rafael,94901,37.972662,-122.491452
1081,Dinuba,93618,36.523619,-119.386868
1082,Lucerne,95458,39.141934,-122.770679
1083,Santa Ana,92705,33.766004,-117.786763
1084,Anaheim,92804,33.818,-117.974404
1085,Oceanside,92057,33.254497,-117.285879
1086,Salinas,93906,36.722898,-121.633648
1087,Redondo Beach,90278,33.873395,-118.37019
1088,San Francisco,94109,37.794487,-122.42227
1089,Santa Fe Springs,90670,33.933565,-118.062611
1090,Sebastopol,95472,38.398815,-122.861923
1091,California City,93505,35.151491,-117.927597
1092,Santa Clarita,91350,34.502432,-118.41459
1093,Mammoth Lakes,93546,37.550074,-118.837167
1094,Inglewood,90303,33.936291,-118.332639
1095,Elk Creek,95939,39.53222,-122.594879
1096,Catheys Valley,95306,37.394411,-120.127262
1097,Stockton,95206,37.902422,-121.440029
1098,Miranda,95553,40.210895,-123.86
1099,North Fork,93643,37.244307,-119.470256
1100,Canoga Park,91304,34.224377,-118.632656
1101,Murrieta,92562,33.548869,-117.334165
1102,Roseville,95747,38.784329,-121.373245
1103,Woody,93287,35.710244,-118.881679
1104,San Bernardino,92405,34.142747,-117.300864
1105,Orinda,94563,37.873916,-122.20522
1106,San Juan Bautista,95045,36.810568,-121.503022
1107,Benton,93512,37.653947,-118.231443
1108,Thousand Oaks,91360,34.214054,-118.88109
1109,Ventura,93003,34.279221,-119.221437
1110,Riverside,92509,34.004379,-117.447864
1111,Torrance,90502,33.833181,-118.292062
1112,Blocksburg,95514,40.309088,-123.668201
1113,Ben Lomond,95005,37.078873,-122.090386
1114,Santa Maria,93458,34.95934,-120.490081
1115,Blythe,92225,33.674583,-114.71612
1116,Santa Ana,92706,33.765893,-117.881533
1117,March Air Reserve Base,92518,33.888323,-117.277533
1118,San Diego,92108,32.774046,-117.142454
1119,Lemon Cove,93244,36.462671,-118.997291
1120,Palo Alto,94303,37.45809,-122.115398
1121,Suisun City,94585,38.197907,-122.017258
1122,San Diego,92119,32.802959,-117.027095
1123,Glendale,91204,34.136306,-118.26036
1124,Bakersfield,93306,35.449881,-118.841442
1125,Lamont,93241,35.245035,-118.905553
1126,Bayside,95524,40.825486,-124.049485
1127,Hawaiian Gardens,90716,33.830431,-118.074071
1128,Compton,90220,33.88151,-118.234451
1129,Meridian,95957,39.068071,-121.832638
1130,Pope Valley,94567,38.672708,-122.403219
1131,Little River,95456,39.245911,-123.77214
1132,Berkeley,94703,37.863843,-122.275684
1133,Mount Laguna,91948,32.830852,-116.444601
1134,Chula Vista,91915,32.605012,-116.97595
1135,Bakersfield,93313,35.140938,-119.051348
1136,Termo,96132,41.027281,-120.669427
1137,Kernville,93238,35.852892,-118.397782
1138,Richmond,94801,37.945288,-122.383941
1139,Orosi,93647,36.600185,-119.175655
1140,West Sacramento,95605,38.592745,-121.540036
1141,Chualar,93925,36.596271,-121.442274
1142,Bloomington,92316,34.059722,-117.39104
1143,Kerman,93630,36.727418,-120.123526
1144,Newport Beach,92663,33.62251,-117.927024
1145,Simi Valley,93065,34.269449,-118.768471
1146,Dunnigan,95937,38.931425,-121.946081
1147,Traver,93673,36.456091,-119.486225
1148,Mcarthur,96056,41.10831,-121.360362
1149,Big Pine,93513,37.245505,-118.062943
1150,Novato,94945,38.135897,-122.563683
1151,Irvine,92612,33.643095,-117.810896
1152,Olancha,93549,36.296851,-117.865469
1153,San Mateo,94403,37.538309,-122.305109
1154,Hercules,94547,37.991259,-122.214945
1155,Los Angeles,90005,34.059281,-118.30742
1156,Raymond,93653,37.252057,-119.95783
1157,Tomales,94971,38.240769,-122.901041
1158,Mccloud,96057,41.251322,-122.105209
1159,Sloughhouse,95683,38.470423,-121.114897
1160,El Cajon,92020,32.79697,-116.969082
1161,Vallejo,94589,38.161321,-122.271588
1162,Vallejo,94590,38.104705,-122.247387
1163,Pacific Grove,93950,36.618337,-121.926417
1164,Hemet,92543,33.739415,-116.968339
1165,La Jolla,92037,32.853743,-117.25034
1166,Alleghany,95910,39.467828,-120.841386
1167,Fresno,93702,36.739385,-119.753649
1168,Long Beach,90813,33.781086,-118.199049
1169,Rancho Santa Fe,92067,33.012751,-117.200617
1170,Paso Robles,93446,35.634222,-120.728341
1171,Greenview,96037,41.528541,-122.955018
1172,Oceanside,92054,33.351059,-117.420557
1173,San Jose,95124,37.257063,-121.923037
1174,Orange,92865,33.828779,-117.848299
1175,Soda Springs,95728,39.279068,-120.414275
1176,Winton,95388,37.421299,-120.599587
1177,Mount Hamilton,95140,37.382909,-121.634151
1178,Los Angeles,90013,34.044639,-118.240413
1179,Fremont,94555,37.555473,-122.080312
1180,San Gabriel,91776,34.089927,-118.095645
1181,Los Banos,93635,36.995162,-120.955099
1182,Bonsall,92003,33.290907,-117.202895
1183,Riverside,92505,33.920907,-117.489426
1184,Lebec,93243,34.845861,-118.885163
1185,Mt Baldy,91759,34.231318,-117.662032
1186,Sacramento,95822,38.512569,-121.495184
1187,Huntington Beach,92646,33.666301,-117.969501
1188,Hayward,94542,37.656695,-122.048361
1189,Rancho Mirage,92270,33.763678,-116.429928
1190,Santa Cruz,95065,37.031404,-121.981865
1191,El Cerrito,94530,37.924838,-122.289145
1192,San Marino,91108,34.122671,-118.112911
1193,Kirkwood,95646,38.631489,-120.015167
1194,Caspar,95420,39.361283,-123.784599
1195,Hopland,95449,38.93706,-123.118111
1196,Torrance,90503,33.840399,-118.353714
1197,Platina,96076,40.367964,-122.937379
1198,Santa Rosa,95407,38.394091,-122.739814
1199,Rio Oso,95674,38.954144,-121.482536
1200,Mc Kittrick,93251,35.38381,-119.730885
1201,San Leandro,94578,37.704384,-122.126703
1202,Anaheim,92807,33.848733,-117.788357
1203,Sutter Creek,95685,38.432145,-120.77069
1204,Van Nuys,91405,34.202494,-118.448048
1205,Compton,90222,33.912246,-118.236773
1206,Morro Bay,93442,35.369553,-120.763864
1207,Stinson Beach,94970,37.921137,-122.657562
1208,Salyer,95563,40.89866,-123.539754
1209,Guadalupe,93434,34.936,-120.594655
1210,Winterhaven,92283,32.852947,-114.850784
1211,Vista,92083,33.17494,-117.242761
1212,Hemet,92545,33.734933,-117.044145
1213,Stirling City,95978,39.904002,-121.527823
1214,Santa Monica,90405,34.005439,-118.477507
1215,Fontana,92335,34.087558,-117.464096
1216,Reseda,91335,34.200175,-118.540958
1217,Downieville,95936,39.578792,-120.780786
1218,La Verne,91750,34.144703,-117.770299
1219,Orland,95963,39.748037,-122.302169
1220,Chula Vista,91911,32.607964,-117.059459
1221,Scott Bar,96085,41.737962,-123.07557
1222,Independence,93526,36.869584,-118.189241
1223,Napa,94559,38.232389,-122.324944
1224,Carlsbad,92009,33.098018,-117.258203
1225,Ballico,95303,37.4695,-120.672724
1226,Sacramento,95815,38.608405,-121.449942
1227,Sacramento,95828,38.486938,-121.395805
1228,Apple Valley,92308,34.424926,-117.184503
1229,Vallejo,94591,38.105733,-122.186338
1230,Mountain View,94041,37.388349,-122.075299
1231,San Francisco,94117,37.770533,-122.445121
1232,Los Altos,94022,37.349546,-122.134356
1233,Granite Bay,95746,38.749466,-121.184196
1234,Doyle,96109,40.012675,-120.101857
1235,Barstow,92311,34.965648,-117.001509
1236,Myers Flat,95554,40.267158,-123.805913
1237,Dulzura,91917,32.622999,-116.687855
1238,Knights Landing,95645,38.875508,-121.765866
1239,Sierraville,96126,39.559709,-120.345639
1240,Ontario,91764,34.074087,-117.605618
1241,San Francisco,94110,37.750021,-122.415201
1242,Browns Valley,95918,39.292334,-121.320597
1243,Angels Camp,95222,38.071327,-120.632221
1244,Murrieta,92563,33.581045,-117.14719
1245,Santa Paula,93060,34.402343,-119.094824
1246,Valencia,91354,34.457005,-118.573726
1247,Tollhouse,93667,36.993666,-119.348267
1248,Garden Valley,95633,38.852544,-120.837669
1249,Five Points,93624,36.397745,-120.119911
1250,Foresthill,95631,39.031876,-120.811141
1251,Hathaway Pines,95233,38.184914,-120.364085
1252,Sonoma,95476,38.25485,-122.461799
1253,Lake Isabella,93240,35.607875,-118.466318
1254,Kneeland,95549,40.664483,-123.865325
1255,Burlingame,94010,37.57028,-122.365778
1256,Whittier,90605,33.960891,-118.032222
1257,Yorba Linda,92886,33.897253,-117.792202
1258,San Jose,95135,37.28682,-121.723877
1259,Sacramento,95827,38.549185,-121.328386
1260,Williams,95987,39.117537,-122.284654
1261,Wishon,93669,37.287758,-119.548156
1262,Yucca Valley,92284,34.159534,-116.425984
1263,Alpine,91901,32.827184,-116.703729
1264,Paicines,95043,36.525703,-120.952122
1265,Pollock Pines,95726,38.733908,-120.453416
1266,Reedley,93654,36.636638,-119.421842
1267,Maxwell,95955,39.281194,-122.226568
1268,Danville,94506,37.791481,-121.903253
1269,New Cuyama,93254,34.956577,-119.750142
1270,Crockett,94525,38.049292,-122.228415
1271,Fontana,92337,34.049671,-117.468896
1272,Redwood Valley,95470,39.298065,-123.25211
1273,Strathmore,93267,36.141319,-119.129075
1274,Rocklin,95765,38.823278,-121.281856
1275,Yorba Linda,92887,33.884073,-117.732197
1276,Trabuco Canyon,92679,33.631119,-117.567346
1277,Belmont,94002,37.509366,-122.306132
1278,Palmdale,93550,34.536232,-118.082935
1279,San Bruno,94066,37.624436,-122.430661
1280,Sacramento,95837,38.691607,-121.602284
1281,San Jose,95136,37.270938,-121.851046
1282,Citrus Heights,95610,38.69508,-121.271616
1283,Mill Creek,96061,40.331975,-121.460674
1284,Coulterville,95311,37.722127,-120.110174
1285,Lakeside,92040,32.909873,-116.906774
1286,Raisin City,93652,36.594542,-119.905245
1287,Borrego Springs,92004,33.200369,-116.192313
1288,Taft,93268,35.184837,-119.402525
1289,Inglewood,90302,33.975332,-118.355252
1290,Petrolia,95558,40.274302,-124.210902
1291,San Francisco,94129,37.797526,-122.464531
1292,Sunol,94586,37.587494,-121.862856
1293,Bridgeville,95526,40.372532,-123.525626
1294,Berkeley,94710,37.872902,-122.303708
1295,Bakersfield,93312,35.392599,-119.245341
1296,San Andreas,95249,38.196497,-120.61689
1297,Dobbins,95935,39.381174,-121.21191
1298,Playa Del Rey,90293,33.947305,-118.439841
1299,Concord,94521,37.971421,-121.971504
1300,San Francisco,94123,37.800254,-122.436975
1301,Blue Lake,95525,40.94338,-123.831799
1302,Los Angeles,90027,34.127194,-118.295647
1303,Lakeport,95453,39.080469,-122.955176
1304,Huron,93234,36.217864,-120.080117
1305,Linden,95236,38.047746,-121.030499
1306,Scotia,95565,40.440636,-124.098739
1307,Newark,94560,37.504133,-122.032347
1308,El Monte,91731,34.079934,-118.046695
1309,Glennville,93226,35.735694,-118.738483
1310,San Diego,92131,32.89325,-117.087091
1311,Jackson,95642,38.336216,-120.76901
1312,Fowler,93625,36.625792,-119.672483
1313,Los Osos,93402,35.279984,-120.824288
1314,Travis Afb,94535,38.265899,-121.939461
1315,Bolinas,94924,37.943087,-122.72379
1316,Indio,92201,33.713891,-116.237257
1317,San Quentin,94964,37.942551,-122.491642
1318,Lincoln,95648,38.922812,-121.312005
1319,Ravendale,96123,40.845738,-120.322219
1320,Princeton,95970,39.424957,-122.039307
1321,King City,93930,36.220761,-120.980777
1322,Redwood City,94063,37.499411,-122.196318
1323,Emigrant Gap,95715,39.23754,-120.720196
1324,Ukiah,95482,39.134075,-123.23422
1325,San Francisco,94111,37.801776,-122.402293
1326,Alturas,96101,41.468877,-120.54229
1327,Carmel By The Sea,93921,36.554618,-121.922239
1328,Sausalito,94965,37.848641,-122.515692
1329,Sierra Madre,91024,34.168686,-118.057505
1330,San Jose,95132,37.424655,-121.74841
1331,San Bernardino,92407,34.250069,-117.393949
1332,Idyllwild,92549,33.755039,-116.741796
1333,Marshall,94940,38.129308,-122.834815
1334,Rancho Cucamonga,91701,34.132275,-117.611478
1335,Los Angeles,90031,34.085807,-118.206617
1336,Sacramento,95826,38.542532,-121.378826
1337,Sacramento,95824,38.517295,-121.439819
1338,Nuevo,92567,33.82769,-117.102244
1339,San Jose,95128,37.316146,-121.936285
1340,Adelanto,92301,34.667815,-117.536183
1341,Mill Valley,94941,37.901371,-122.572024
1342,Willits,95490,39.492046,-123.375818
1343,Walnut Grove,95690,38.240419,-121.587535
1344,Los Angeles,90008,34.008293,-118.346766
1345,Lakewood,90715,33.841027,-118.078097
1346,Ducor,93218,35.846067,-119.004073
1347,Glendora,91740,34.119363,-117.855059
1348,Nubieber,96068,41.082472,-121.195215
1349,Bieber,96009,41.083464,-121.107929
1350,Corte Madera,94925,37.924014,-122.511694
1351,Markleeville,96120,38.735789,-119.85798
1352,Northridge,91324,34.238208,-118.55029
1353,La Crescenta,91214,34.239636,-118.245259
1354,Philo,95466,39.094102,-123.500853
1355,Saint Helena,94574,38.581354,-122.296283
1356,Brownsville,95919,39.440687,-121.263583
1357,San Bernardino,92411,34.122501,-117.320138
1358,Nipton,92364,35.478736,-115.516984
1359,Berkeley,94707,37.897753,-122.279391
1360,Witter Springs,95493,39.222323,-122.985488
1361,Tustin,92782,33.738543,-117.785046
1362,Twentynine Palms,92278,34.457829,-116.139589
1363,Rowland Heights,91748,33.976753,-117.897367
1364,La Honda,94020,37.285677,-122.224165
1365,Homeland,92548,33.761894,-117.120868
1366,Trinity Center,96091,41.081847,-122.700545
1367,Hughson,95326,37.5923,-120.853288
1368,Anaheim,92806,33.83796,-117.870494
1369,Seiad Valley,96086,41.924174,-123.260788
1370,Union City,94587,37.59485,-122.051521
1371,Selma,93662,36.545322,-119.642281
1372,San Luis Obispo,93405,35.236549,-120.727344
1373,Marina,93933,36.689582,-121.758398
1374,Tahoma,96142,39.061227,-120.179546
1375,Newcastle,95658,38.883224,-121.15918
1376,Corning,96021,39.913777,-122.289984
1377,Irvine,92614,33.680302,-117.833296
1378,Geyserville,95441,38.731771,-123.064272
1379,Ripon,95366,37.750778,-121.13238
1380,Tehama,96090,40.021787,-122.127576
1381,Berkeley,94704,37.871416,-122.246597
1382,Calabasas,91302,34.130861,-118.68346
1383,Yuba City,95993,39.075694,-121.70606
1384,Oakland,94610,37.808731,-122.238708
1385,Glendora,91741,34.14649,-117.849815
1386,Huntington Beach,92648,33.679659,-118.016195
1387,Nipomo,93444,35.050345,-120.489599
1388,Los Angeles,90011,34.00709,-118.258681
1389,Paynes Creek,96075,40.343213,-121.815412
1390,Echo Lake,95721,38.851842,-120.076204
1391,Dillon Beach,94929,38.24458,-122.956268
1392,Long Beach,90803,33.760458,-118.129725
1393,Bella Vista,96008,40.722733,-122.109666
1394,Canoga Park,91303,34.19829,-118.602203
1395,San Jose,95121,37.304681,-121.809955
1396,California Hot Springs,93207,35.865795,-118.69759
1397,Brooks,95606,38.809804,-122.241383
1398,Lagunitas,94938,38.021772,-122.691744
1399,Lytle Creek,92358,34.238162,-117.534306
1400,Avenal,93204,35.916943,-120.129921
1401,Glencoe,95232,38.358464,-120.579304
1402,Long Beach,90814,33.771612,-118.143866
1403,Fresno,93720,36.878709,-119.7645
1404,Walnut Creek,94595,37.862128,-122.075197
1405,Long Barn,95335,38.109125,-120.078597
1406,Bass Lake,93604,37.458367,-119.345011
1407,Arcadia,91006,34.137319,-118.029837
1408,Oakland,94607,37.80707,-122.297401
1409,Courtland,95615,38.311609,-121.554034
1410,Hermosa Beach,90254,33.86532,-118.396336
1411,Millville,96062,40.531257,-122.148139
1412,Atwater,95301,37.321233,-120.656354
1413,Los Altos,94024,37.352911,-122.093002
1414,Hanford,93230,36.29223,-119.622676
1415,Los Angeles,90019,34.049841,-118.33846
1416,Warner Springs,92086,33.323705,-116.626907
1417,Escalon,95320,37.818543,-121.006907
1418,Sacramento,95841,38.660442,-121.346321
1419,Santa Maria,93455,34.818227,-120.418784
1420,Modesto,95350,37.671806,-121.007575
1421,Shingletown,96088,40.497441,-121.827524
1422,Thousand Oaks,91362,34.191842,-118.822796
1423,Los Angeles,90061,33.92128,-118.274186
1424,Berkeley,94708,37.897743,-122.263124
1425,West Hills,91307,34.199787,-118.68493
1426,Carlsbad,92008,33.148116,-117.306043
1427,Sunland,91040,34.282704,-118.312929
1428,La Canada Flintridge,91011,34.234912,-118.153729
1429,Santa Cruz,95060,36.993451,-122.098858
1430,Tracy,95376,37.680968,-121.446049
1431,Bakersfield,93311,35.16207,-119.194488
1432,Rio Linda,95673,38.688764,-121.457596
1433,Moreno Valley,92555,33.907361,-117.109972
1434,San Diego,92102,32.716007,-117.117462
1435,Forest Falls,92339,34.067699,-116.903891
1436,Oakland,94605,37.758019,-122.138678
1437,San Francisco,94122,37.760412,-122.484966
1438,San Pedro,90731,33.736387,-118.284363
1439,San Jose,95125,37.294926,-121.894763
1440,Manhattan Beach,90266,33.889632,-118.39737
1441,Rialto,92376,34.109775,-117.378904
1442,Daggett,92327,34.875144,-116.821698
1443,Davis Creek,96108,41.750354,-120.403885
1444,Santa Monica,90404,34.026334,-118.474222
1445,Joshua Tree,92252,34.167236,-116.281511
1446,Oak View,93022,34.404544,-119.302118
1447,Los Angeles,90006,34.048013,-118.293953
1448,Palm Desert,92260,33.694501,-116.412711
1449,Beaumont,92223,33.946982,-116.977672
1450,Whittier,90603,33.945318,-117.992066
1451,Elmira,95625,38.349195,-121.902943
1452,Durham,95938,39.607831,-121.777959
1453,Albany,94706,37.890274,-122.295192
1454,French Camp,95231,37.873283,-121.292034
1455,Salinas,93901,36.64152,-121.622188
1456,Larkspur,94939,37.937082,-122.532369
1457,Irvine,92606,33.703976,-117.824172
1458,Fresno,93701,36.749403,-119.787574
1459,Olema,94950,38.052209,-122.775567
1460,Casmalia,93429,34.866032,-120.536546
1461,Fields Landing,95537,40.726949,-124.217378
1462,Galt,95632,38.274451,-121.259201
1463,Litchfield,96117,40.507272,-120.338228
1464,Loyalton,96118,39.637471,-120.226338
1465,Tupman,93276,35.316263,-119.402559
1466,Moreno Valley,92557,33.970661,-117.255039
1467,Santa Barbara,93108,34.457541,-119.631072
1468,Llano,93544,34.500091,-117.765862
1469,Van Nuys,91401,34.178483,-118.431791
1470,Quincy,95971,39.971228,-121.041166
1471,Dunsmuir,96025,41.212695,-122.392067
1472,San Francisco,94131,37.746699,-122.442833
1473,Greenfield,93927,36.248708,-121.386617
1474,Pismo Beach,93449,35.165668,-120.655842
1475,Oakland,94606,37.792489,-122.244314
1476,Arroyo Grande,93420,35.176236,-120.483243
1477,Macdoel,96058,41.769709,-121.92063
1478,Pico Rivera,90660,33.989524,-118.089299
1479,Wildomar,92595,33.617108,-117.253349
1480,Springville,93265,36.245926,-118.693138
1481,Crestline,92325,34.248061,-117.29028
1482,El Cajon,92019,32.785165,-116.862648
1483,Sugarloaf,92386,34.243088,-116.830015
1484,Pleasant Hill,94523,37.95338,-122.076886
1485,Avalon,90704,33.391181,-118.421305
1486,Penngrove,94951,38.325599,-122.642352
1487,Los Angeles,90002,33.949255,-118.246978
1488,Montclair,91763,34.072121,-117.698319
1489,Lake Elsinore,92532,33.705836,-117.318204
1490,Sacramento,95825,38.590035,-121.412455
1491,Arvin,93203,35.116307,-118.817644
1492,North San Juan,95960,39.423046,-120.984472
1493,Eldridge,95431,38.348884,-122.51699
1494,Soulsbyville,95372,37.990574,-120.261821
1495,Summerland,93067,34.420998,-119.60137
1496,San Fernando,91340,34.286131,-118.435969
1497,Fair Oaks,95628,38.652065,-121.25441
1498,Santa Ana,92704,33.719869,-117.907063
1499,Frazier Park,93222,34.907911,-119.234281
1500,Los Angeles,90042,34.11572,-118.192754
1501,Annapolis,95412,38.731055,-123.316553
1502,San Jose,95120,37.186141,-121.843554
1503,Fillmore,93015,34.408161,-118.865111
1504,Portola Valley,94028,37.369709,-122.215844
1505,Laguna Beach,92651,33.570023,-117.773669
1506,Valley Springs,95252,38.156971,-120.849231
1507,San Francisco,94105,37.789168,-122.395009
1508,Gustine,95322,37.147198,-121.120161
1509,Pinole,94564,37.996462,-122.293716
1510,Lake Arrowhead,92352,34.2565,-117.19335
1511,Lower Lake,95457,38.925545,-122.549083
1512,Los Angeles,90022,34.02381,-118.156582
1513,Palo Alto,94304,37.386978,-122.177746
1514,Gazelle,96034,41.411315,-122.697236
1515,Potter Valley,95469,39.408634,-123.045516
1516,San Jose,95134,37.42765,-121.945416
1517,Redondo Beach,90277,33.830453,-118.384565
1518,Laguna Hills,92653,33.606899,-117.717854
1519,O Neals,93645,37.140104,-119.657092
1520,Clayton,94517,37.881842,-121.848111
1521,Pomona,91768,34.067932,-117.785168
1522,Delano,93215,35.772244,-119.209689
1523,Lockeford,95237,38.166791,-121.14207
1524,Sherman Oaks,91423,34.146957,-118.432138
1525,Silverado,92676,33.782346,-117.635263
1526,Calipatria,92233,33.143826,-115.497485
1527,Moss Landing,95039,36.863303,-121.781632
1528,Mountain Ranch,95246,38.264262,-120.515133
1529,San Francisco,94121,37.776718,-122.495781
1530,Lancaster,93536,34.741406,-118.38111
1531,Oxnard,93030,34.223244,-119.18012
1532,Occidental,95465,38.415003,-122.998726
1533,Palo Alto,94306,37.416159,-122.131337
1534,Hornbrook,96044,41.962127,-122.527696
1535,Rosamond,93560,34.903052,-118.411251
1536,Stratford,93266,36.175255,-119.813805
1537,Topaz,96133,38.636052,-119.489162
1538,Huntington Beach,92647,33.723579,-118.005441
1539,Holtville,92250,32.811001,-115.152865
1540,Keyes,95328,37.555631,-120.911653
1541,Los Angeles,90016,34.028331,-118.354338
1542,Esparto,95627,38.834469,-122.127193
1543,San Geronimo,94963,38.00474,-122.663717
1544,Cardiff By The Sea,92007,33.015866,-117.272254
1545,Moraga,94556,37.827946,-122.107185
1546,Mountain Center,92561,33.638645,-116.55783
1547,Hacienda Heights,91745,33.998471,-117.973758
1548,Burbank,91505,34.174215,-118.345928
1549,Grand Terrace,92313,34.029175,-117.307211
1550,Twain,95984,40.022184,-121.062384
1551,Spring Valley,91978,32.730264,-116.950963
1552,Oakland,94602,37.803883,-122.208417
1553,San Diego,92114,32.707892,-117.05512
1554,San Francisco,94124,37.731505,-122.384532
1555,Caliente,93518,35.358953,-118.527064
1556,Laguna Niguel,92677,33.529047,-117.701175
1557,Fremont,94538,37.505768,-121.962472
1558,Glendale,91205,34.13658,-118.245839
1559,Sacramento,95864,38.585826,-121.376263
1560,Palm Springs,92262,33.839989,-116.659215
1561,Anaheim,92802,33.807864,-117.923782
1562,Applegate,95703,38.983388,-120.988814
1563,Laton,93242,36.444232,-119.718285
1564,Duncans Mills,95430,38.445603,-123.063756
1565,San Francisco,94103,37.773147,-122.411287
1566,Sacramento,95838,38.646096,-121.442433
1567,Helm,93627,36.520537,-120.118055
1568,Santa Barbara,93110,34.437945,-119.77191
1569,Newbury Park,91320,34.172071,-118.946262
1570,Oroville,95966,39.473896,-121.415927
1571,San Jose,95127,37.375156,-121.795867
1572,El Nido,95317,37.127386,-120.506422
1573,Sacramento,95842,38.687367,-121.34848
1574,Chula Vista,91914,32.688506,-116.938632
1575,Lemoore,93245,36.303666,-119.825657
1576,Madeline,96119,41.042003,-120.506086
1577,Los Alamos,93440,34.758699,-120.275839
1578,Gardena,90249,33.90139,-118.315697
1579,Montebello,90640,34.015217,-118.109962
1580,Santa Maria,93454,34.943523,-120.256729
1581,Auberry,93602,36.991762,-119.242874
1582,Davenport,95017,37.114335,-122.237162
1583,Rocklin,95677,38.7904,-121.236973
1584,Valley Center,92082,33.25283,-116.986079
1585,Camarillo,93012,34.205504,-118.993111
1586,Goodyears Bar,95944,39.564113,-120.868836
1587,Fontana,92336,34.136367,-117.460803
1588,Red Bluff,96080,40.186772,-122.388361
1589,Manteca,95336,37.830267,-121.201018
1590,Rialto,92377,34.156758,-117.404686
1591,Carmichael,95608,38.626128,-121.328011
1592,Loleta,95551,40.665952,-124.240051
1593,Crescent Mills,95934,40.080342,-120.957805
1594,Solana Beach,92075,33.001813,-117.263628
1595,Antioch,94509,37.980057,-121.801599
1596,Fort Bidwell,96112,41.932207,-120.135941
1597,Yountville,94599,38.421458,-122.365048
1598,Roseville,95678,38.759751,-121.288545
1599,Valencia,91355,34.43987,-118.644609
1600,Wofford Heights,93285,35.690535,-118.552784
1601,Villa Park,92861,33.817473,-117.810462
1602,Merced,95340,37.255637,-120.493537
1603,Glendale,91203,34.153338,-118.262974
1604,Oakland,94603,37.739113,-122.175602
1605,Pacifica,94044,37.573633,-122.455167
1606,Chico,95928,39.681488,-121.83721
1607,Corona,92882,33.819385,-117.600213
1608,Long Beach,90808,33.823943,-118.111335
1609,Indian Wells,92210,33.537646,-116.291089
1610,Earlimart,93219,35.858054,-119.305858
1611,Fullerton,92832,33.868316,-117.929029
1612,Mineral,96063,40.408796,-121.579609
1613,Tranquillity,93668,36.635661,-120.288644
1614,Sacramento,95819,38.567594,-121.437507
1615,Sun City,92586,33.707483,-117.200006
1616,Vina,96092,39.955164,-122.018567
1617,Paskenta,96074,39.884395,-122.587513
1618,Green Valley Lake,92341,34.244411,-117.072654
1619,Visalia,93292,36.37559,-119.211689
1620,Watsonville,95076,36.931654,-121.752383
1621,Burson,95225,38.183918,-120.898817
1622,Salinas,93908,36.624338,-121.615669
1623,South Lake Tahoe,96150,38.911577,-120.106169
1624,Jacumba,91934,32.649787,-116.2237
1625,Carpinteria,93013,34.441398,-119.513163
1626,Meadow Valley,95956,39.937017,-121.058043
